NORAD_CAT_ID,OBJECT_NAME,OBJECT_TYPE,EPOCH,MEAN_MOTION,ECCENTRICITY,INCLINATION,RA_OF_ASC_NODE,ARG_OF_PERICENTER,MEAN_ANOMALY,BSTAR,MEAN_MOTION_DOT,MEAN_MOTION_DDOT,TLE_LINE0,TLE_LINE1,TLE_LINE2,SEMIMAJOR_AXIS,PERIOD,APOGEE,PERIGEE,DECAYED
49755.0,STARLINK-3210,PAYLOAD,2022-03-09 14:00:01,15.08858712,0.0001925,53.2167,228.2643,51.9219,180.6336,-0.0014119,-0.000227,0.0,0 STARLINK-3210,1 49755U 21115AH  22068.58334491 -.00022700  00000-0 -14119-2 0  9996,2 49755  53.2167 228.2643 0001925  51.9219 180.6336 15.08858712  3619,6917.823,95.436,541.02,538.357,0.0
49755.0,STARLINK-3210,PAYLOAD,2022-03-09 22:00:01,15.08838319,0.0002012,53.2162,226.7689,46.7693,197.4582,0.0012141,0.00019086,0.0,0 STARLINK-3210,1 49755U 21115AH  22068.91668981  .00019086  00000-0  12141-2 0  9991,2 49755  53.2162 226.7689 0002012  46.7693 197.4582 15.08838319 16123,6917.886,95.438,541.1419999999998,538.359,0.0
49755.0,STARLINK-3210,PAYLOAD,2022-03-10 14:00:01,15.08867054,0.0001881,53.216,223.7755,51.1163,216.2646,-0.0034052,-0.00054116,0.0,0 STARLINK-3210,1 49755U 21115AH  22069.58334491 -.00054116  00000-0 -34052-2 0  9991,2 49755  53.2160 223.7755 0001881  51.1163 216.2646 15.08867054  3560,6917.7980000000025,95.436,540.964,538.361,0.0
49755.0,STARLINK-3210,PAYLOAD,2022-03-10 20:00:01,15.0881345,0.0001977,53.2159,222.6541,46.0568,140.0372,0.0027595,0.00043872,0.0,0 STARLINK-3210,1 49755U 21115AH  22069.83334491  .00043872  00000-0  27595-2 0  9998,2 49755  53.2159 222.6541 0001977  46.0568 140.0372 15.08813450 16258,6917.962,95.439,541.194,538.4590000000002,0.0
49755.0,STARLINK-3210,PAYLOAD,2022-03-10 22:00:01,15.08823849,0.0001959,53.2155,222.2799,45.4262,233.6228,0.0020098,0.00031829,0.0,0 STARLINK-3210,1 49755U 21115AH  22069.91668981  .00031829  00000-0  20098-2 0  9991,2 49755  53.2155 222.2799 0001959  45.4262 233.6228 15.08823849  3594,6917.93,95.439,541.15,538.44,0.0
49755.0,STARLINK-3210,PAYLOAD,2022-03-11 12:00:00,15.08871271,0.0001814,53.2157,219.6601,51.3312,157.9531,-0.0031633,-0.00050324,0.0,0 STARLINK-3210,1 49755U 21115AH  22070.50001157 -.00050324  00000-0 -31633-2 0  9994,2 49755  53.2157 219.6601 0001814  51.3312 157.9531 15.08871271 16355,6917.785,95.436,540.905,538.395,0.0
49755.0,STARLINK-3210,PAYLOAD,2022-03-11 14:00:01,15.08861872,0.0001852,53.2155,219.2864,48.6562,253.535,-0.0029136,-0.00046388,0.0,0 STARLINK-3210,1 49755U 21115AH  22070.58334491 -.00046388  00000-0 -29136-2 0  9992,2 49755  53.2155 219.2864 0001852  48.6562 253.5350 15.08861872  3576,6917.814,95.436,540.96,538.3969999999998,0.0
49755.0,STARLINK-3210,PAYLOAD,2022-03-11 22:00:00,15.08832857,0.0001923,53.2151,217.7908,42.4953,271.3025,0.0018299,0.00028949,0.0,0 STARLINK-3210,1 49755U 21115AH  22070.91667824  .00028949  00000-0  18299-2 0  9997,2 49755  53.2151 217.7908 0001923  42.4953 271.3025 15.08832857 16425,6917.901999999999,95.438,541.0980000000002,538.437,0.0
49755.0,STARLINK-3210,PAYLOAD,2022-03-12 06:00:00,15.08801913,0.0001789,53.2173,216.302,49.6388,275.6453,0.0036525,0.00058262,0.0,0 STARLINK-3210,1 49755U 21115AH  22071.25001157  .00058262  00000-0  36525-2 0  9999,2 49755  53.2173 216.3020 0001789  49.6388 275.6453 15.08801913 16476,6917.996999999999,95.44,541.099,538.624,0.0
49755.0,STARLINK-3210,PAYLOAD,2022-03-12 14:00:01,15.08839031,0.0001826,53.2154,214.7974,43.6008,293.3166,-0.0011644,-0.00018771,0.0,0 STARLINK-3210,1 49755U 21115AH  22071.58334491 -.00018771  00000-0 -11644-2 0  9993,2 49755  53.2154 214.7974 0001826  43.6008 293.3166 15.08839031  3599,6917.8830000000025,95.438,541.012,538.485,0.0
49755.0,STARLINK-3210,PAYLOAD,2022-03-12 22:00:00,15.08837675,0.0001927,53.2152,213.3016,38.7309,309.7814,0.001508,0.00023792,0.0,0 STARLINK-3210,1 49755U 21115AH  22071.91667824  .00023792  00000-0  15080-2 0  9994,2 49755  53.2152 213.3016 0001927  38.7309 309.7814 15.08837675  3594,6917.887,95.438,541.086,538.419,0.0
49755.0,STARLINK-3210,PAYLOAD,2022-03-13 06:00:00,15.08805181,0.0001789,53.2172,211.8129,45.6082,314.4511,0.0033063,0.00052675,0.0,0 STARLINK-3210,1 49755U 21115AH  22072.25001157  .00052675  00000-0  33063-2 0  9996,2 49755  53.2172 211.8129 0001789  45.6082 314.4511 15.08805181 16627,6917.986999999999,95.44,541.089,538.614,0.0
49755.0,STARLINK-3210,PAYLOAD,2022-03-13 14:00:01,15.08841311,0.0002028,53.2157,210.3083,45.8212,325.8543,-0.0011198,-0.00018067,0.0,0 STARLINK-3210,1 49755U 21115AH  22072.58334491 -.00018067  00000-0 -11198-2 0  9996,2 49755  53.2157 210.3083 0002028  45.8212 325.8543 15.08841311  3618,6917.876,95.437,541.144,538.3380000000002,0.0
49755.0,STARLINK-3210,PAYLOAD,2022-03-13 22:00:01,15.08836352,0.0002095,53.2156,208.8123,41.6627,341.6596,0.00077811,0.00012116,0.0,0 STARLINK-3210,1 49755U 21115AH  22072.91668981  .00012116  00000-0  77811-3 0  9999,2 49755  53.2156 208.8123 0002095  41.6627 341.6596 15.08836352 16721,6917.892,95.438,541.206,538.307,0.0
49755.0,STARLINK-3210,PAYLOAD,2022-03-14 14:00:01,15.08866105,0.000205,53.2163,205.8191,42.4507,4.1077,-0.00023583,-4.042e-05,0.0,0 STARLINK-3210,1 49755U 21115AH  22073.58335648 -.00004042  00000-0 -23583-3 0  9992,2 49755  53.2163 205.8191 0002050  42.4507   4.1077 15.08866105 16823,6917.801,95.436,541.0840000000002,538.247,0.0
49755.0,STARLINK-3210,PAYLOAD,2022-03-14 20:00:01,15.08850293,0.0002069,53.2163,204.6975,38.9218,286.2845,0.0020394,0.00032328,0.0,0 STARLINK-3210,1 49755U 21115AH  22073.83334491  .00032328  00000-0  20394-2 0  9997,2 49755  53.2163 204.6975 0002069  38.9218 286.2845 15.08850293  3563,6917.849,95.437,541.145,538.283,0.0
49755.0,STARLINK-3210,PAYLOAD,2022-03-15 02:00:01,15.08888701,0.0001886,53.2167,203.5737,39.9575,203.9617,-0.0054137,-0.00085541,0.0,0 STARLINK-3210,1 49755U 21115AH  22074.08334491 -.00085541  00000-0 -54137-2 0  9994,2 49755  53.2167 203.5737 0001886  39.9575 203.9617 15.08888701 16904,6917.732,95.434,540.901,538.2919999999998,0.0
49755.0,STARLINK-3210,PAYLOAD,2022-03-15 22:00:00,15.08796062,0.0002038,53.2168,199.8339,38.0216,54.8191,-3.8574e-05,-9.01e-06,0.0,0 STARLINK-3210,1 49755U 21115AH  22074.91667824 -.00000901  00000-0 -38574-4 0  9991,2 49755  53.2168 199.8339 0002038  38.0216  54.8191 15.08796062 17024,6918.015,95.44,541.29,538.47,0.0
49755.0,STARLINK-3210,PAYLOAD,2022-03-16 14:00:01,15.08820915,0.0001943,53.2173,196.8416,39.175,76.7516,0.00086026,0.00013422,0.0,0 STARLINK-3210,1 49755U 21115AH  22075.58334491  .00013422  00000-0  86026-3 0  9990,2 49755  53.2173 196.8416 0001943  39.1750  76.7516 15.08820915  3598,6917.939,95.439,541.148,538.46,0.0
49755.0,STARLINK-3210,PAYLOAD,2022-03-16 20:00:01,15.08826417,0.0001973,53.217,195.7197,34.9795,359.6304,0.0020189,0.00031977,0.0,0 STARLINK-3210,1 49755U 21115AH  22075.83334491  .00031977  00000-0  20189-2 0  9990,2 49755  53.2170 195.7197 0001973  34.9795 359.6304 15.08826417 17163,6917.922,95.438,541.1519999999998,538.422,0.0
49755.0,STARLINK-3210,PAYLOAD,2022-03-17 14:00:01,15.08861923,0.0001926,53.2172,192.3528,38.1628,112.548,-0.00093279,-0.00015112,0.0,0 STARLINK-3210,1 49755U 21115AH  22076.58334491 -.00015112  00000-0 -93279-3 0  9999,2 49755  53.2172 192.3528 0001926  38.1628 112.5480 15.08861923 17279,6917.813,95.436,541.011,538.346,0.0
49755.0,STARLINK-3210,PAYLOAD,2022-03-17 22:00:00,15.08870588,0.0001903,53.2169,190.8562,35.2532,127.0699,-0.0031027,-0.00049372,0.0,0 STARLINK-3210,1 49755U 21115AH  22076.91667824 -.00049372  00000-0 -31027-2 0  9992,2 49755  53.2169 190.8562 0001903  35.2532 127.0699 15.08870588  3605,6917.7869999999975,95.436,540.9680000000002,538.335,0.0
49755.0,STARLINK-3210,PAYLOAD,2022-03-18 14:00:01,15.08853781,0.0001933,53.217,187.8641,37.2725,148.2582,-0.0010943,-0.00017669,0.0,0 STARLINK-3210,1 49755U 21115AH  22077.58334491 -.00017669  00000-0 -10943-2 0  9995,2 49755  53.2170 187.8641 0001933  37.2725 148.2582 15.08853781  3613,6917.8380000000025,95.437,541.04,538.366,0.0
49755.0,STARLINK-3210,PAYLOAD,2022-03-18 22:00:00,15.0885766,0.0001954,53.2166,186.3672,37.3797,159.7533,-0.0030563,-0.00048626,0.0,0 STARLINK-3210,1 49755U 21115AH  22077.91667824 -.00048626  00000-0 -30563-2 0  9998,2 49755  53.2166 186.3672 0001954  37.3797 159.7533 15.08857660 17471,6917.826,95.436,541.043,538.34,0.0
49755.0,STARLINK-3210,PAYLOAD,2022-03-19 14:00:01,15.08833932,0.0002052,53.2167,183.3753,39.3728,180.9413,4.0201e-05,3.52e-06,0.0,0 STARLINK-3210,1 49755U 21115AH  22078.58334491  .00000352  00000-0  40201-4 0  9997,2 49755  53.2167 183.3753 0002052  39.3728 180.9413 15.08833932 17575,6917.899,95.438,541.183,538.344,0.0
49755.0,STARLINK-3210,PAYLOAD,2022-03-19 22:00:01,15.08870936,0.0001986,53.2165,181.8783,37.1992,194.7624,-0.0045731,-0.00072401,0.0,0 STARLINK-3210,1 49755U 21115AH  22078.91668981 -.00072401  00000-0 -45731-2 0  9995,2 49755  53.2165 181.8783 0001986  37.1992 194.7624 15.08870936  3615,6917.786,95.436,541.025,538.2769999999998,0.0
49755.0,STARLINK-3210,PAYLOAD,2022-03-20 14:00:01,15.08824563,0.0002088,53.2165,178.8863,37.0401,218.0408,0.0004582,7.009e-05,0.0,0 STARLINK-3210,1 49755U 21115AH  22079.58334491  .00007009  00000-0  45820-3 0  9995,2 49755  53.2165 178.8863 0002088  37.0401 218.0408 15.08824563  3589,6917.928000000001,95.439,541.237,538.3480000000002,0.0
49755.0,STARLINK-3210,PAYLOAD,2022-03-20 22:00:01,15.08858871,0.0002036,53.2164,177.3892,36.0207,230.7063,-0.0016393,-0.00026297,0.0,0 STARLINK-3210,1 49755U 21115AH  22079.91668981 -.00026297  00000-0 -16393-2 0  9990,2 49755  53.2164 177.3892 0002036  36.0207 230.7063 15.08858871 17784,6917.823,95.436,541.096,538.279,0.0
49755.0,STARLINK-3210,PAYLOAD,2022-03-21 14:00:01,15.08859371,0.000214,53.2166,174.3972,35.897,253.9781,-0.0023217,-0.00037069,0.0,0 STARLINK-3210,1 49755U 21115AH  22080.58334491 -.00037069  00000-0 -23217-2 0  9993,2 49755  53.2166 174.3972 0002140  35.8970 253.9781 15.08859371 17883,6917.821,95.436,541.1669999999998,538.206,0.0
